[{"OBJECT_NAME":"STARLINK-31972","OBJECT_ID":"2024-106B","EPOCH":"2026-03-09T02:44:34.849536","MEAN_MOTION":15.27594941,"ECCENTRICITY":0.00030739,"INCLINATION":43.009,"RA_OF_ASC_NODE":335.8745,"ARG_OF_PERICENTER":262.8714,"MEAN_ANOMALY":97.1788,"EPHEMERIS_TYPE":0,"CLASSIFICATION_TYPE":"U","NORAD_CAT_ID":59923,"ELEMENT_SET_NO":999,"REV_AT_EPOCH":10048,"BSTAR":-0.00014339191,"MEAN_MOTION_DOT":-4.209e-5,"MEAN_MOTION_DDOT":0},{"OBJECT_NAME":"COSMOS 2251 DEB","OBJECT_ID":"1993-036SV","EPOCH":"2026-03-09T21:55:42.811680","MEAN_MOTION":15.15006345,"ECCENTRICITY":0.00579573,"INCLINATION":74.0283,"RA_OF_ASC_NODE":1.8812,"ARG_OF_PERICENTER":55.6817,"MEAN_ANOMALY":304.9843,"EPHEMERIS_TYPE":0,"CLASSIFICATION_TYPE":"U","NORAD_CAT_ID":34452,"ELEMENT_SET_NO":999,"REV_AT_EPOCH":91981,"BSTAR":0.0011020825,"MEAN_MOTION_DOT":0.00021495,"MEAN_MOTION_DDOT":0}]
